STARLINK-5415           
1 54796U 22175AQ  23002.98412727 -.00018063  00000+0 -12416-3 0  9991
2 54796  53.2151 226.0883 0005676 238.1271 121.9197 15.73239822  2281
STARLINK-5435           
1 54797U 22175AR  23003.58334491 -.01200153  00000+0 -10755-1 0  9996
2 54797  53.2169 223.1343 0001351  56.2427  90.6069 15.70211008  2371
STARLINK-5420           
1 54798U 22175AS  23003.61195375 -.00093752  00000+0 -62007-3 0  9990
2 54798  53.2153 222.8964 0002925 120.4761 239.6549 15.75015316  2381
STARLINK-5421           
1 54799U 22175AT  23003.10912461  .00050654  00000+0  36262-3 0  9994
2 54799  53.2155 225.4462 0001851  32.2848 327.8285 15.73233794  2308
STARLINK-5428           
1 54800U 22175AU  23003.61901834  .00029257  00000+0  21215-3 0  9992
2 54800  53.2145 222.9415 0001200  85.3048 274.8109 15.73199945  2382
STARLINK-5429           
1 54801U 22175AV  23003.58334491 -.01201099  00000+0 -10719-1 0  9992
2 54801  53.2170 223.1265 0001363  61.0241  89.8157 15.70311325  2374
STARLINK-5426           
1 54802U 22175AW  23003.58334491  .00283646  43313-4  62798-3 0  9993
2 54802  53.2146 221.8173 0030122 100.9620 329.2847 15.96636524  2398
STARLINK-5430           
1 54803U 22175AX  23003.23795106  .00056376  00000+0  40329-3 0  9995
2 54803  53.2147 224.8283 0001121  86.2205 273.8943 15.73207030  2322
STARLINK-5422           
1 54804U 22175AY  23003.23752628  .00009654  00000+0  73044-4 0  9996
2 54804  53.2149 224.8262 0001183  52.1611 307.9516 15.73225876  2326
STARLINK-5417           
1 54805U 22175AZ  23003.61880504  .00008913  00000+0  67858-4 0  9997
2 54805  53.2151 222.9388 0001373  44.1258 315.9871 15.73198133  2381
STARLINK-5412           
1 54806U 22175BA  23003.23732104  .00031197  00000+0  22594-3 0  9995
2 54806  53.2154 224.8248 0001781  33.6287 326.4846 15.73192582  2324
STARLINK-5410           
1 54807U 22175BB  23002.91667824  .00048691  00000+0  34982-3 0  9997
2 54807  53.2146 226.4119 0001495  56.2563 286.3236 15.73167185  1306
STARLINK-5413           
1 54808U 22175BC  23003.17358251  .00046289  00000+0  33216-3 0  9998
2 54808  53.2152 225.1374 0001732  39.1113 321.0032 15.73217100  2314
STARLINK-5414           
1 54809U 22175BD  23003.23721480  .00041273  00000+0  29704-3 0  9999
2 54809  53.2149 224.8234 0001080  53.2328 306.8791 15.73200312  2324
STARLINK-5408           
1 54810U 22175BE  23003.23699752  .00054476  00000+0  39060-3 0  9992
2 54810  53.2152 224.8222 0001335  78.7619 281.3551 15.73166633  2323
STARLINK-5424           
1 54811U 22175BF  23003.61806808  .00028713  00000+0  20820-3 0  9996
2 54811  53.2146 222.9340 0001263  62.8492 297.2657 15.73210985  2389
FALCON 9 DEB            
1 54812U 22175BG  23002.67428766  .07754216  12269-4  56931-3 0  9993
2 54812  53.2087 224.7325 0014306 108.0513 252.2095 16.39517704  4433
FALCON 9 DEB            
1 54813U 22175BH  23002.05811630  .05524481  12109-4  88183-3 0  9996
2 54813  53.1989 227.9951 0021083 103.0265 257.3135 16.32175774  4333
FALCON 9 DEB            
1 54814U 22175BJ  23002.47695736  .06165182  12225-4  61348-3 0  9993
2 54814  53.2129 225.6167 0015819 102.0725 258.2096 16.36875054  4401
FALCON 9 DEB            
1 54815U 22175BK  23002.03974446  .06887911  12296-4  53550-3 0  9999
2 54815  53.2145 227.8638 0014139  98.2381 262.0272 16.39062999  4335
XW-4 (CAS-10)           
1 54816U 21035C   23003.61735197  .00111316  00000+0  11540-2 0  9997
2 54816  41.4778  78.5831 0006472 307.0519  52.9731 15.63517222  2466
2022-176A               
1 54818U 22176A   23003.48329365  .00180368  89879-5  90177-3 0  9991
2 54818  97.2725 144.4747 0319817 165.4327 239.0547 15.34389935  1100
2022-176B               
1 54819U 22176B   23003.62156704  .00267702  23602-4  79727-3 0  9990
2 54819  97.2271 144.9380 0168789 149.3124 211.8131 15.72956725  1152
SHIYAN 10-02 (SY-10 02) 
1 54878U 22178A   22363.79780338  .00010514 -29619-6  76203-3 0  9999
2 54878  50.9887 118.8514 7525127 225.2265  62.4328  2.01047938    45
CZ-3B R/B               
1 54879U 22178B   23002.78878788  .00004593  00000+0  14539-2 0  9995
2 54879  51.3993 117.6659 7521769 226.6616  39.5844  1.99161502   115
EROS C3                 
1 54880U 22179A   23003.56012827  .00000260  00000+0  00000+0 0  9991
2 54880 139.3593 245.8461 0012795 285.6629  74.3549 15.24090956   656
1998-067UQ              
1 55123U 98067UQ  23003.63333487  .00047740  00000+0  80865-3 0  9992
2 55123  51.6429  63.6040 0003157 273.6994  86.3634 15.51052568   873
1998-067UR              
1 55124U 98067UR  23003.65810831  .00060369  00000+0  10202-2 0  9997
2 55124  51.6453  63.4813 0002972 265.5963 231.8120 15.51017177   860
1998-067US              
1 55125U 98067US  23003.63357344  .00040543  00000+0  69100-3 0  9995
2 55125  51.6429  63.6053 0003896 269.3117  90.7426 15.50949302   887
1998-067UT              
1 55126U 98067UT  23003.63368923  .00035150  00000+0  60181-3 0  9999
2 55126  51.6429  63.6061 0003928 268.6498  91.4041 15.50889048   888
1998-067UU              
1 55127U 98067UU  23003.62836962  .00374260  00000+0  53691-2 0  9997
2 55127  51.6414  63.5700 0001579 282.4679  77.6134 15.54276582   849
1998-067UV              
1 55128U 98067UV  23003.65902079  .00041530  00000+0  71426-3 0  9992
2 55128  51.6445  63.4855 0004828 248.9506 248.6383 15.50679744   872
1998-067UW              
1 55129U 98067UW  23003.44145077  .00026363  00000+0  46064-3 0  9994
2 55129  51.6427  64.5728 0002775 235.2336 124.8392 15.50470921   841
1998-067UX              
1 55130U 98067UX  23003.59786241  .00023350  00000+0  40927-3 0  9991
2 55130  51.6470  63.7968 0003724 221.2797 292.1437 15.50452918   811
